{"type": "FeatureCollection", "features": [ {"type": "Feature", "properties": {"norad_id": 64202, "name": "GPS BIII-8  (PRN 21)", "group": "gnss", "lat": -52.750956992165, "lon": -75.11908204607512, "alt_km": 20179.019383077142, "timestamp": "2025-12-19T10:50:01.444607+00:00", "meta": {"OBJECT_NAME": "GPS BIII-8  (PRN 21)", "OBJECT_ID": "2025-116A", "EPOCH": "2025-12-18T15:16:52.654656", "MEAN_MOTION": 2.00558053, "ECCENTRICITY": 0.00059082, "INCLINATION": 55.1097, "RA_OF_ASC_NODE": 38.4029, "ARG_OF_PERICENTER": 309.1838, "MEAN_ANOMALY": 78.7026, "EPHEMERIS_TYPE": 0, "CLASSIFICATION_TYPE": "U", "NORAD_CAT_ID": 64202, "ELEMENT_SET_NO": 999, "REV_AT_EPOCH": 425, "BSTAR": 0, "MEAN_MOTION_DOT": -7e-07, "MEAN_MOTION_DDOT": 0}, "tle": {"line1": "1 64202U 25116A   25352.63672054 -.00000070  00000+0  00000+0 0  9995", "line2": "2 64202  55.1097  38.4029 0005908 309.1838  78.7026  2.00558053  4252"}}, "geometry": {"type": "Point", "coordinates": [-75.11908204607512, -52.750956992165]}}, {"type": "Feature", "properties": {"norad_id": 65590, "name": "COSMOS 2596 (708K)", "group": "gnss", "lat": 29.846914070521205, "lon": 125.51221866521266, "alt_km": 19160.342528460274, "timestamp": "2025-12-19T10:50:01.444621+00:00", "meta": {"OBJECT_NAME": "COSMOS 2596 (708K)", "OBJECT_ID": "2025-206B", "EPOCH": "2025-12-18T11:34:10.893792", "MEAN_MOTION": 2.13100518, "ECCENTRICITY": 0.00140397, "INCLINATION": 64.7412, "RA_OF_ASC_NODE": 321.2751, "ARG_OF_PERICENTER": 306.7014, "MEAN_ANOMALY": 176.2676, "EPHEMERIS_TYPE": 0, "CLASSIFICATION_TYPE": "U", "NORAD_CAT_ID": 65590, "ELEMENT_SET_NO": 999, "REV_AT_EPOCH": 206, "BSTAR": 0, "MEAN_MOTION_DOT": -6.4e-07, "MEAN_MOTION_DDOT": 0}, "tle": {"line1": "1 65590U 25206B   25352.48207053 -.00000064  00000+0  00000+0 0  9995", "line2": "2 65590  64.7412 321.2751 0014039 306.7014 176.2676  2.13100518  2064"}}, "geometry": {"type": "Point", "coordinates": [125.51221866521266, 29.846914070521205]}}, {"type": "Feature", "properties": {"norad_id": 67160, "name": "GALILEO A", "group": "gnss", "lat": 54.1831933028539, "lon": -158.64157623920852, "alt_km": 22957.435926305716, "timestamp": "2025-12-19T10:50:01.444632+00:00", "meta": {"OBJECT_NAME": "GALILEO A", "OBJECT_ID": "2025-302A", "EPOCH": "2025-12-18T03:30:19.276416", "MEAN_MOTION": 1.72903353, "ECCENTRICITY": 0.00081342, "INCLINATION": 54.2386, "RA_OF_ASC_NODE": 107.2478, "ARG_OF_PERICENTER": 237.4124, "MEAN_ANOMALY": 122.4681, "EPHEMERIS_TYPE": 0, "CLASSIFICATION_TYPE": "U", "NORAD_CAT_ID": 67160, "ELEMENT_SET_NO": 999, "REV_AT_EPOCH": 2, "BSTAR": 0, "MEAN_MOTION_DOT": -7e-08, "MEAN_MOTION_DDOT": 0}, "tle": {"line1": "1 67160U 25302A   25352.14605644 -.00000007  00000+0  00000+0 0  9995", "line2": "2 67160  54.2386 107.2478 0008134 237.4124 122.4681  1.72903353    27"}}, "geometry": {"type": "Point", "coordinates": [-158.64157623920852, 54.1831933028539]}}, {"type": "Feature", "properties": {"norad_id": 67161, "name": "GALILEO B", "group": "gnss", "lat": 54.136849280272706, "lon": -157.7238082005568, "alt_km": 22943.376926641206, "timestamp": "2025-12-19T10:50:01.444644+00:00", "meta": {"OBJECT_NAME": "GALILEO B", "OBJECT_ID": "2025-302B", "EPOCH": "2025-12-18T17:22:24.246336", "MEAN_MOTION": 1.72971576, "ECCENTRICITY": 0.00048165, "INCLINATION": 54.2288, "RA_OF_ASC_NODE": 107.2066, "ARG_OF_PERICENTER": 251.7259, "MEAN_ANOMALY": 108.1814, "EPHEMERIS_TYPE": 0, "CLASSIFICATION_TYPE": "U", "NORAD_CAT_ID": 67161, "ELEMENT_SET_NO": 999, "REV_AT_EPOCH": 4, "BSTAR": 0, "MEAN_MOTION_DOT": -6e-08, "MEAN_MOTION_DDOT": 0}, "tle": {"line1": "1 67161U 25302B   25352.72389174 -.00000006  00000+0  00000+0 0  9996", "line2": "2 67161  54.2288 107.2066 0004816 251.7259 108.1814  1.72971576    46"}}, "geometry": {"type": "Point", "coordinates": [-157.7238082005568, 54.136849280272706]}}]}